[{"OBJECT_NAME":"ASRTU-1 (AO-123)","OBJECT_ID":"2024-199AY","EPOCH":"2026-03-09T22:36:42.151392","MEAN_MOTION":15.34070057,"ECCENTRICITY":0.0012786,"INCLINATION":97.3152,"RA_OF_ASC_NODE":298.5256,"ARG_OF_PERICENTER":309.3392,"MEAN_ANOMALY":50.6717,"EPHEMERIS_TYPE":0,"CLASSIFICATION_TYPE":"U","NORAD_CAT_ID":61781,"ELEMENT_SET_NO":999,"REV_AT_EPOCH":11870,"BSTAR":0.00032267684,"MEAN_MOTION_DOT":0.00010589,"MEAN_MOTION_DDOT":0},{"OBJECT_NAME":"STARLINK-34250","OBJECT_ID":"2025-139AC","EPOCH":"2026-03-09T10:23:12.490080","MEAN_MOTION":15.30168667,"ECCENTRICITY":0.00011968,"INCLINATION":53.1585,"RA_OF_ASC_NODE":128.3064,"ARG_OF_PERICENTER":73.6942,"MEAN_ANOMALY":286.4191,"EPHEMERIS_TYPE":0,"CLASSIFICATION_TYPE":"U","NORAD_CAT_ID":64690,"ELEMENT_SET_NO":999,"REV_AT_EPOCH":4024,"BSTAR":0.00085387979,"MEAN_MOTION_DOT":0.00024991,"MEAN_MOTION_DDOT":0}]
